NORAD_CAT_ID,OBJECT_NAME,OBJECT_TYPE,EPOCH,MEAN_MOTION,ECCENTRICITY,INCLINATION,RA_OF_ASC_NODE,ARG_OF_PERICENTER,MEAN_ANOMALY,BSTAR,MEAN_MOTION_DOT,MEAN_MOTION_DDOT,TLE_LINE0,TLE_LINE1,TLE_LINE2,SEMIMAJOR_AXIS,PERIOD,APOGEE,PERIGEE,DECAYED
53267.0,STARLINK-4060,PAYLOAD,2023-03-26 22:20:54,15.08849889,8.19e-05,53.2168,356.8561,106.4286,253.6796,0.0016676,0.00026359,0.0,0 STARLINK-4060,1 53267U 22086AB  23085.93118561  .00026359  00000-0  16676-2 0  9996,2 53267  53.2168 356.8561 0000819 106.4286 253.6796 15.08849889 38211,6917.85,95.437,540.282,539.149,0.0
53267.0,STARLINK-4060,PAYLOAD,2023-03-27 04:42:26,15.08874674,0.0001009,53.2165,355.6663,77.3453,282.7652,0.0021305,0.00033814,0.0,0 STARLINK-4060,1 53267U 22086AB  23086.19614161  .00033814  00000-0  21305-2 0  9991,2 53267  53.2165 355.6663 0001009  77.3453 282.7652 15.08874674 38070,6917.774,95.435,540.337,538.941,0.0
53267.0,STARLINK-4060,PAYLOAD,2023-03-27 17:25:31,15.08854852,9.24e-05,53.2172,353.284,108.5981,251.5111,0.00047255,7.244e-05,0.0,0 STARLINK-4060,1 53267U 22086AB  23086.72605985  .00007244  00000-0  47255-3 0  9995,2 53267  53.2172 353.2840 0000924 108.5981 251.5111 15.08854852 38156,6917.835,95.437,540.339,539.061,0.0
53267.0,STARLINK-4060,PAYLOAD,2023-03-27 22:11:40,15.08868742,9.34e-05,53.2165,352.3952,65.3643,294.7447,0.0018046,0.00028572,0.0,0 STARLINK-4060,1 53267U 22086AB  23086.92477900  .00028572  00000-0  18046-2 0  9993,2 53267  53.2165 352.3952 0000934  65.3643 294.7447 15.08868742 38365,6917.793,95.436,540.304,539.011,0.0
53267.0,STARLINK-4060,PAYLOAD,2023-03-28 02:57:49,15.08880694,0.0001048,53.2169,351.5013,109.181,250.9296,0.0019826,0.00031441,0.0,0 STARLINK-4060,1 53267U 22086AB  23087.12349258  .00031441  00000-0  19826-2 0  9996,2 53267  53.2169 351.5013 0001048 109.1810 250.9296 15.08880694 38218,6917.756,95.435,540.346,538.896,0.0
53267.0,STARLINK-4060,PAYLOAD,2023-03-28 23:37:50,15.08861688,9.55e-05,53.2173,347.6359,120.7838,239.3248,0.0018983,0.00030071,0.0,0 STARLINK-4060,1 53267U 22086AB  23087.98461606  .00030071  00000-0  18983-2 0  9993,2 53267  53.2173 347.6359 0000955 120.7838 239.3248 15.08861688 38341,6917.814,95.436,540.34,539.018,0.0
53267.0,STARLINK-4060,PAYLOAD,2023-03-29 02:48:37,15.08860226,0.0001088,53.2176,347.0418,109.0224,251.0886,0.0015161,0.00023936,0.0,0 STARLINK-4060,1 53267U 22086AB  23088.11709551  .00023936  00000-0  15161-2 0  9990,2 53267  53.2176 347.0418 0001088 109.0224 251.0886 15.08860226 38369,6917.819,95.436,540.436,538.931,0.0
53267.0,STARLINK-4060,PAYLOAD,2023-03-29 20:17:52,15.08840352,0.0001047,53.2178,343.7708,98.065,262.0461,0.0015816,0.00024973,0.0,0 STARLINK-4060,1 53267U 22086AB  23088.84574222  .00024973  00000-0  15816-2 0  9994,2 53267  53.2178 343.7708 0001047  98.0650 262.0461 15.08840352 38472,6917.879,95.438,540.469,539.02,0.0
53267.0,STARLINK-4060,PAYLOAD,2023-03-30 02:39:24,15.08854896,0.0001103,53.2174,342.5811,91.6797,268.4321,0.0014435,0.00022769,0.0,0 STARLINK-4060,1 53267U 22086AB  23089.11069987  .00022769  00000-0  14435-2 0  9999,2 53267  53.2174 342.5811 0001103  91.6797 268.4321 15.08854896 38691,6917.835,95.437,540.463,538.937,0.0
53267.0,STARLINK-4060,PAYLOAD,2023-03-31 02:30:11,15.08861859,0.000106,53.2184,338.1209,97.9088,262.2025,0.0018407,0.00029146,0.0,0 STARLINK-4060,1 53267U 22086AB  23090.10430209  .00029146  00000-0  18407-2 0  9998,2 53267  53.2184 338.1209 0001060  97.9088 262.2025 15.08861859 38665,6917.814,95.436,540.412,538.945,0.0
53267.0,STARLINK-4060,PAYLOAD,2023-03-31 19:59:26,15.08842584,0.0001329,53.2177,334.8491,126.6834,233.428,0.0012882,0.00020275,0.0,0 STARLINK-4060,1 53267U 22086AB  23090.83294831  .00020275  00000-0  12882-2 0  9992,2 53267  53.2177 334.8491 0001329 126.6834 233.4280 15.08842584 38779,6917.872,95.437,540.657,538.818,0.0
53267.0,STARLINK-4060,PAYLOAD,2023-04-01 00:45:36,15.08841964,8.87e-05,53.2177,333.9586,78.546,281.5632,0.0011326,0.00017784,0.0,0 STARLINK-4060,1 53267U 22086AB  23091.03167001  .00017784  00000-0  11326-2 0  9996,2 53267  53.2177 333.9586 0000887  78.5460 281.5632 15.08841964 38802,6917.874,95.437,540.353,539.126,0.0
53267.0,STARLINK-4060,PAYLOAD,2023-04-01 23:01:00,15.0884189,9.52e-05,53.2179,329.7982,100.9616,259.1484,0.00037531,5.691e-05,0.0,0 STARLINK-4060,1 53267U 22086AB  23091.95903194  .00005691  00000-0  37531-3 0  9999,2 53267  53.2179 329.7982 0000952 100.9616 259.1484 15.08841890 39123,6917.875,95.437,540.398,539.081,0.0
53267.0,STARLINK-4060,PAYLOAD,2023-04-02 14:54:51,15.08847486,8.67e-05,53.2167,326.8249,116.1003,244.0078,0.00035846,5.423e-05,0.0,0 STARLINK-4060,1 53267U 22086AB  23092.62142977  .00005423  00000-0  35846-3 0  9998,2 53267  53.2167 326.8249 0000867 116.1003 244.0078 15.08847486 39228,6917.858,95.437,540.322,539.123,0.0
53267.0,STARLINK-4060,PAYLOAD,2023-04-02 19:41:01,15.08842198,8.51e-05,53.2171,325.932,108.6699,251.4386,0.00028966,4.325e-05,0.0,0 STARLINK-4060,1 53267U 22086AB  23092.82015202  .00004325  00000-0  28966-3 0  9995,2 53267  53.2171 325.9320 0000851 108.6699 251.4386 15.08842198 39075,6917.874,95.437,540.327,539.15,0.0
53267.0,STARLINK-4060,PAYLOAD,2023-04-02 21:16:24,15.08845501,9.18e-05,53.2174,325.6347,101.8892,258.2203,0.00023506,3.456e-05,0.0,0 STARLINK-4060,1 53267U 22086AB  23092.88639036  .00003456  00000-0  23506-3 0  9997,2 53267  53.2174 325.6347 0000918 101.8892 258.2203 15.08845501 39263,6917.864,95.437,540.364,539.094,0.0
53267.0,STARLINK-4060,PAYLOAD,2023-04-03 02:02:33,15.08851184,9.77e-05,53.2167,324.7411,94.5109,265.5994,0.00033297,5.017e-05,0.0,0 STARLINK-4060,1 53267U 22086AB  23093.08510806  .00005017  00000-0  33297-3 0  9996,2 53267  53.2167 324.7411 0000977  94.5109 265.5994 15.08851184 39296,6917.846,95.437,540.387,539.035,0.0
53267.0,STARLINK-4060,PAYLOAD,2023-04-03 21:07:11,15.08840262,9.75e-05,53.2156,321.1706,93.9063,266.204,4.7319e-05,4.65e-06,0.0,0 STARLINK-4060,1 53267U 22086AB  23093.87999124  .00000465  00000-0  47319-4 0  9990,2 53267  53.2156 321.1706 0000975  93.9063 266.2040 15.08840262 39231,6917.88,95.438,540.419,539.07,0.0
53267.0,STARLINK-4060,PAYLOAD,2023-04-04 00:17:57,15.08844189,9.26e-05,53.2164,320.5765,100.1017,260.008,8.964e-05,1.139e-05,0.0,0 STARLINK-4060,1 53267U 22086AB  23094.01246989  .00001139  00000-0  89640-4 0  9993,2 53267  53.2164 320.5765 0000926 100.1017 260.0080 15.08844189 39434,6917.868,95.437,540.373,539.092,0.0
53267.0,STARLINK-4060,PAYLOAD,2023-04-04 20:57:58,15.08843031,9.44e-05,53.2156,316.7112,106.1513,253.9583,0.00010976,1.46e-05,0.0,0 STARLINK-4060,1 53267U 22086AB  23094.87359157  .00001460  00000-0  10976-3 0  9991,2 53267  53.2156 316.7112 0000944 106.1513 253.9583 15.08843031 39563,6917.871,95.437,540.389,539.083,0.0
53267.0,STARLINK-4060,PAYLOAD,2023-04-05 00:08:44,15.08844348,9.77e-05,53.2159,316.1163,106.8824,253.2275,0.00015709,2.213e-05,0.0,0 STARLINK-4060,1 53267U 22086AB  23095.00607107  .00002213  00000-0  15709-3 0  9994,2 53267  53.2159 316.1163 0000977 106.8824 253.2275 15.08844348 39400,6917.867,95.437,540.408,539.056,0.0
53267.0,STARLINK-4060,PAYLOAD,2023-04-05 08:05:40,15.08845754,8.97e-05,53.2172,314.6282,96.3433,263.7661,-2.2273e-05,-6.42e-06,0.0,0 STARLINK-4060,1 53267U 22086AB  23095.33726941 -.00000642  00000-0 -22273-4 0  9999,2 53267  53.2172 314.6282 0000897  96.3433 263.7661 15.08845754 39632,6917.863,95.437,540.348,539.107,0.0
53267.0,STARLINK-4060,PAYLOAD,2023-04-05 20:48:45,15.08843115,0.0001056,53.2169,312.2501,96.3943,263.717,0.00015749,2.22e-05,0.0,0 STARLINK-4060,1 53267U 22086AB  23095.86719271  .00002220  00000-0  15749-3 0  9996,2 53267  53.2169 312.2501 0001056  96.3943 263.7170 15.08843115 39533,6917.871,95.437,540.466,539.005,0.0
53267.0,STARLINK-4060,PAYLOAD,2023-04-05 23:59:31,15.08845386,0.0001085,53.2172,311.6547,98.1897,261.9218,0.00016414,2.326e-05,0.0,0 STARLINK-4060,1 53267U 22086AB  23095.99967150  .00002326  00000-0  16414-3 0  9998,2 53267  53.2172 311.6547 0001085  98.1897 261.9218 15.08845386 39737,6917.864,95.437,540.48,538.978,0.0
53267.0,STARLINK-4060,PAYLOAD,2023-04-06 23:50:19,15.08828737,0.0001018,53.2157,307.1956,94.3533,265.7575,0.0003835,5.819e-05,0.0,0 STARLINK-4060,1 53267U 22086AB  23096.99328038  .00005819  00000-0  38350-3 0  9998,2 53267  53.2157 307.1956 0001018  94.3533 265.7575 15.08828737 39701,6917.915,95.438,540.484,539.076,0.0
53267.0,STARLINK-4060,PAYLOAD,2023-04-07 12:33:23,15.08840669,0.0001001,53.2165,304.8163,91.0926,269.0181,7.3477e-05,8.82e-06,0.0,0 STARLINK-4060,1 53267U 22086AB  23097.52319422  .00000882  00000-0  73477-4 0  9990,2 53267  53.2165 304.8163 0001001  91.0926 269.0181 15.08840669 39782,6917.878,95.438,540.436,539.051,0.0
53267.0,STARLINK-4060,PAYLOAD,2023-04-08 01:16:28,15.08849635,9.26e-05,53.2169,302.4377,84.0015,276.1082,0.00014012,1.944e-05,0.0,0 STARLINK-4060,1 53267U 22086AB  23098.05310568  .00001944  00000-0  14012-3 0  9990,2 53267  53.2169 302.4377 0000926  84.0015 276.1082 15.08849635 39863,6917.851,95.437,540.357,539.075,0.0
53267.0,STARLINK-4060,PAYLOAD,2023-04-08 13:59:36,15.08816541,9.73e-05,53.2168,300.0591,93.0264,267.084,-6.718e-05,-1.356e-05,0.0,0 STARLINK-4060,1 53267U 22086AB  23098.58305705 -.00001356  00000-0 -67180-4 0  9999,2 53267  53.2168 300.0591 0000973  93.0264 267.0840 15.08816541 39942,6917.952,95.439,540.49,539.144,0.0
53267.0,STARLINK-4060,PAYLOAD,2023-04-08 18:45:44,15.08821951,9.85e-05,53.2161,299.1671,91.4546,268.6559,-8.032e-05,-1.565e-05,0.0,0 STARLINK-4060,1 53267U 22086AB  23098.78176984 -.00001565  00000-0 -80320-4 0  9999,2 53267  53.2161 299.1671 0000985  91.4546 268.6559 15.08821951 39978,6917.936,95.439,540.482,539.119,0.0
53267.0,STARLINK-4060,PAYLOAD,2023-04-09 12:14:59,15.08837221,9.68e-05,53.2158,295.8956,96.9256,263.1847,0.0010073,0.00015778,0.0,0 STARLINK-4060,1 53267U 22086AB  23099.51041331  .00015778  00000-0  10073-2 0  9993,2 53267  53.2158 295.8956 0000968  96.9256 263.1847 15.08837221 40083,6917.889,95.438,540.424,539.084,0.0
